0 EKRAN 15
1 16729U 86038A   13281.76006396 -.00000072  00000-0  10000-3 0  2641
2 16729 016.1177 003.5487 0007108 238.5258 121.4191 00.96545893 73611
0 EKRAN 15
1 16729U 86038A   13285.90298554 -.00000147  00000-0  10000-3 0  2654
2 16729 016.1192 003.5075 0007112 238.9270 121.0076 00.96547192 73650
0 EKRAN 15
1 16729U 86038A   13289.01013562 -.00000175  00000-0  10000-3 0  2666
2 16729 016.1204 003.4767 0007131 239.3138 120.6110 00.96547466 73681
0 EKRAN 15
1 16729U 86038A   13291.08158672 -.00000147  00000-0  10000-3 0  2678
2 16729 016.1215 003.4564 0007073 239.2522 120.6689 00.96546883 73705
0 EKRAN 15
1 16729U 86038A   13294.18880311 -.00000093  00000-0  10000-3 0  2685
2 16729 016.1226 003.4256 0006925 239.6892 120.2376 00.96546092 73738
